satname,norad_id,inclination_deg,eccentricity,mean_motion_rev_per_day,perigee_km,apogee_km,l1,l2
STARLINK-1506,45747,53.0647,0.000209,15.21880044,498.73249685620885,501.6076292085563,1 45747U 20038T   25318.57685256  .00010820  00000+0  48312-3 0  9994,2 45747  53.0647  13.1898 0002090 305.9238  54.1563 15.21880044299136
STARLINK-1464,45751,53.0562,0.0001396,15.06380001,546.3060654555866,548.239639886453,1 45751U 20038X   25318.85202061  .00008620  00000+0  59717-3 0  9995,2 45751  53.0562  12.1456 0001396  99.9648 260.1499 15.06380001299171
STARLINK-1477,45754,53.0549,0.0002609,15.07498598,542.040612744443,545.65250376514,1 45754U 20038AA  25318.59422551  .00004716  00000+0  32568-3 0  9994,2 45754  53.0549  13.2244 0002609  28.3245 331.7886 15.07498598299136
STARLINK-1478,45755,53.0548,0.0001494,15.06364271,546.2864009069554,548.3557277765804,1 45755U 20038AB  25318.55342330  .00008435  00000+0  58504-3 0  9997,2 45755  53.0548  13.4838 0001494  89.1674 270.9486 15.06364271299116
STARLINK-1484,45756,53.0155,0.0003618,15.64152406,373.23399803394386,378.12105822649846,1 45756U 20038AC  25318.84965292  .00077348  00000+0  79740-3 0  9992,2 45756  53.0155 272.0435 0003618  68.1150 292.0248 15.64152406300565
STARLINK-1493,45759,53.0553,0.0001924,15.06383973,545.9282323070711,548.5931253338804,1 45759U 20038AF  25318.54238560 -.00000087  00000+0  13072-4 0  9997,2 45759  53.0553  13.5334 0001924  88.5819 271.5391 15.06383973299112
STARLINK-1494,45760,53.0557,0.0004227,15.52751185,405.82875032779793,411.5663402523869,1 45760U 20038AG  25318.51064492  .00042190  00000+0  67458-3 0  9993,2 45760  53.0557 354.2558 0004227  51.4152 308.7235 15.52751185299394
STARLINK-1502,45764,53.0561,0.0001479,15.0635846,546.3145970992273,548.3631528630458,1 45764U 20038AL  25318.44288119  .00016634  00000+0  11342-2 0  9997,2 45764  53.0561  13.9805 0001479  87.5092 272.6066 15.06358460299115
STARLINK-1470,45772,53.0508,0.0004365,15.18661617,506.8779240714257,512.8911668806259,1 45772U 20038AU  25318.58527705  .00006861  00000+0  34185-3 0  9990,2 45772  53.0508 344.6395 0004365 318.0533  42.0127 15.18661617299539
STARLINK-1482,45773,53.0545,0.0001285,15.06384161,546.3701890897091,548.1500161450813,1 45773U 20038AV  25318.40786821  .00027873  00000+0  18835-2 0  9997,2 45773  53.0545 354.1361 0001285  79.5995 280.5139 15.06384161299387
STARLINK-1496,45780,53.0546,0.0001625,15.06373044,546.1687928618821,548.4195579938969,1 45780U 20038BC  25318.50738994  .00022996  00000+0  15588-2 0  9997,2 45780  53.0546 353.6907 0001625  91.5290 268.5885 15.06373044299388
STARLINK-1497,45781,53.0408,0.0006285,15.58308757,388.2961259338317,396.80688138292953,1 45781U 20038BD  25318.91670139  .00117508  00000+0  15054-2 0  9991,2 45781  53.0408 292.0999 0006285   7.3942 171.9991 15.58308757  5925
STARLINK-1510,45784,53.0297,0.0004512,15.76375293,337.68892249282,343.75201947463665,1 45784U 20038BG  25318.91670139  .00145170  00000+0  88915-3 0  9997,2 45784  53.0297 266.5279 0004512 102.4742 100.3430 15.76375293  5964
STARLINK-1513,45786,53.0556,0.0001363,15.06378162,546.334554940443,548.2224232027638,1 45786U 20038BJ  25318.80225639 -.00002580  00000+0 -15444-3 0  9994,2 45786  53.0556 352.3677 0001363  89.3456 270.7689 15.06378162299443
STARLINK-1522,46027,53.055,9.57e-05,15.06393535,546.5686145497812,547.8941300562401,1 46027U 20055A   25318.31847159  .00026134  00000+0  17672-2 0  9998,2 46027  53.0550 284.5379 0000957  93.7327 266.3771 15.06393535291496
STARLINK-1523,46028,53.0544,0.0001092,15.06391418,546.481609722332,547.9941115918991,1 46028U 20055B   25318.59861258  .00021534  00000+0  14605-2 0  9997,2 46028  53.0544 283.2840 0001092  81.0492 279.0620 15.06391418291552
STARLINK-1526,46029,53.0561,9.89e-05,15.06410203,546.4953735095551,547.865201269,1 46029U 20055C   25318.79025817  .00002711  00000+0  20078-3 0  9991,2 46029  53.0561 282.4178 0000989  97.6727 262.4374 15.06410203291573
STARLINK-1555,46032,53.0544,0.0001248,15.06372332,546.4320635882468,548.1606517543223,1 46032U 20055F   25318.70917944 -.00003209  00000+0 -19681-3 0  9990,2 46032  53.0544 282.7838 0001248  99.8095 260.3035 15.06372332291565
STARLINK-1556,46033,53.0531,0.0001342,15.06392764,546.3043505721971,548.1631200775582,1 46033U 20055G   25318.62441279  .00020883  00000+0  14170-2 0  9997,2 46033  53.0531 283.1653 0001342 130.2720 229.8386 15.06392764291528
STARLINK-1557,46034,53.0548,8.1e-05,15.06439233,546.5303735598291,547.6522605471919,1 46034U 20055H   25318.62804319  .00008149  00000+0  56472-3 0  9999,2 46034  53.0548 283.1489 0000810 157.5291 202.5733 15.06439233291525
STARLINK-1558,46035,53.0538,8.68e-05,15.06427512,546.5261259680874,547.7283518399627,1 46035U 20055J   25318.63546275  .00032905  00000+0  22160-2 0  9998,2 46035  53.0538 283.1184 0000868  55.0619 305.0451 15.06427512291552
STARLINK-1560,46036,53.0538,0.0001426,15.06356328,546.3578357704982,548.3329833537055,1 46036U 20055K   25318.28899830  .00016854  00000+0  11490-2 0  9997,2 46036  53.0538 284.6755 0001426  85.9808 274.1344 15.06356328291504
STARLINK-1567,46038,53.0539,0.0001253,15.0636565,546.4490783756582,548.1845971073963,1 46038U 20055M   25318.63177476  .00005354  00000+0  37841-3 0  9995,2 46038  53.0539 283.1327 0001253  88.1723 271.9409 15.06365650291544
STARLINK-1569,46039,53.0536,0.0001403,15.0636155,546.3577612205936,548.3010470936006,1 46039U 20055N   25318.30742231  .00015090  00000+0  10308-2 0  9993,2 46039  53.0536 284.5906 0001403  86.4888 273.6262 15.06361550291495
STARLINK-1582,46043,53.0551,0.0001519,15.06425767,546.0806384698199,548.1845353703266,1 46043U 20055S   25318.64650118  .00016484  00000+0  11221-2 0  9990,2 46043  53.0551 283.0652 0001519 107.4881 252.6274 15.06425767291541
STARLINK-1591,46045,53.0559,0.0001875,15.06390485,545.9422118738294,548.5392285189027,1 46045U 20055U   25318.87137157  .00018658  00000+0  12685-2 0  9990,2 46045  53.0559 282.0618 0001875  94.5284 265.5919 15.06390485291569
STARLINK-1524,46047,53.0545,0.0001452,15.06378101,546.2731056761813,548.2842463884999,1 46047U 20055W   25318.29358859 -.00005763  00000+0 -36853-3 0  9991,2 46047  53.0545 274.6495 0001452 110.8306 249.2839 15.06378101291633
STARLINK-1527,46048,53.0549,0.0001475,15.06379103,546.254106614716,548.2971033331823,1 46048U 20055X   25318.28989397 -.00002767  00000+0 -16702-3 0  9990,2 46048  53.0549 274.6664 0001475 100.9546 259.1609 15.06379103291613
